$$SOE
2460721.500000000, A.D. 2025-Feb-15 00:00:00.0000, -1.119359838451942E+08, -2.738839597307759E+08, -1.162078890330848E+08,
2460728.500000000, A.D. 2025-Feb-22 00:00:00.0000, -1.015905028170296E+08, -2.786696960420936E+08, -1.147914274738099E+08,
2460735.500000000, A.D. 2025-Mar-01 00:00:00.0000, -9.109173366815838E+07, -2.830350301434022E+08, -1.132017650913674E+08,
2460742.500000000, A.D. 2025-Mar-08 00:00:00.0000, -8.045565150904702E+07, -2.869737963451859E+08, -1.114414695989457E+08,
2460749.500000000, A.D. 2025-Mar-15 00:00:00.0000, -6.969833109056364E+07, -2.904802158391854E+08, -1.095132573237193E+08,
2460756.500000000, A.D. 2025-Mar-22 00:00:00.0000, -5.883595430624367E+07, -2.935488935354913E+08, -1.074199935870573E+08,
2460763.500000000, A.D. 2025-Mar-29 00:00:00.0000, -4.788481672029738E+07, -2.961748185605706E+08, -1.051646939397668E+08,
2460770.500000000, A.D. 2025-Apr-05 00:00:00.0000, -3.686133271613108E+07, -2.983533653090219E+08, -1.027505260147032E+08,
2460777.500000000, A.D. 2025-Apr-12 00:00:00.0000, -2.578204111198986E+07, -3.000802949774771E+08, -1.001808118003921E+08,
2460784.500000000, A.D. 2025-Apr-19 00:00:00.0000, -1.466361134991419E+07, -3.013517584964403E+08, -9.745903037929207E+07,
2460791.500000000, A.D. 2025-Apr-26 00:00:00.0000, -3.522849903424768E+06, -3.021643011005921E+08, -9.458882116122013E+07,
2460798.500000000, A.D. 2025-May-03 00:00:00.0000, 7.623293295679523E+06, -3.025148685585238E+08, -9.157398760947540E+07,
2460805.500000000, A.D. 2025-May-10 00:00:00.0000, 1.875771853062751E+07, -3.024008150967671E+08, -8.841850145016432E+07,
2460812.500000000, A.D. 2025-May-17 00:00:00.0000, 2.986317020431552E+07, -3.018199131076096E+08, -8.512650735991812E+07,
2460819.500000000, A.D. 2025-May-24 00:00:00.0000, 4.092223124612538E+07, -3.007703647456083E+08, -8.170232813751318E+07,
2460826.500000000, A.D. 2025-May-31 00:00:00.0000, 5.191731854298191E+07, -2.992508151482300E+08, -7.815047035117349E+07,
2460833.500000000, A.D. 2025-Jun-07 00:00:00.0000, 6.283067911415420E+07, -2.972603661184027E+08, -7.447563030250260E+07,
2460840.500000000, A.D. 2025-Jun-14 00:00:00.0000, 7.364438480437590E+07, -2.947985909817867E+08, -7.068270012462026E+07,
2460847.500000000, A.D. 2025-Jun-21 00:00:00.0000, 8.434032686466061E+07, -2.918655539469004E+08, -6.677677437881950E+07,
2460854.500000000, A.D. 2025-Jun-28 00:00:00.0000, 9.490021370790920E+07, -2.884618322730205E+08, -6.276315727774400E+07,
2460861.500000000, A.D. 2025-Jul-05 00:00:00.0000, 1.053055704855967E+08, -2.845885391608936E+08, -5.864737019577719E+07,
2460868.500000000, A.D. 2025-Jul-12 00:00:00.0000, 1.155377394682548E+08, -2.802473482325274E+08, -5.443515938593513E+07,
2460875.500000000, A.D. 2025-Jul-19 00:00:00.0000, 1.255778816112008E+08, -2.754405202226951E+08, -5.013250391900414E+07,
2460882.500000000, A.D. 2025-Jul-26 00:00:00.0000, 1.354069797294441E+08, -2.701709319736198E+08, -4.574562381160934E+07,
2460889.500000000, A.D. 2025-Aug-02 00:00:00.0000, 1.450058435854140E+08, -2.644421077333981E+08, -4.128098828375988E+07,
2460896.500000000, A.D. 2025-Aug-09 00:00:00.0000, 1.543551171774525E+08, -2.582582527818645E+08, -3.674532408051574E+07,
2460903.500000000, A.D. 2025-Aug-16 00:00:00.0000, 1.634352885998327E+08, -2.516242894450320E+08, -3.214562379648827E+07,
2460910.500000000, A.D. 2025-Aug-23 00:00:00.0000, 1.722267030895022E+08, -2.445458954737487E+08, -2.748915414724709E+07,
2460917.500000000, A.D. 2025-Aug-30 00:00:00.0000, 1.807095799319075E+08, -2.370295440555838E+08, -2.278346406321400E+07,
2460924.500000000, A.D. 2025-Sep-06 00:00:00.0000, 1.888640321669971E+08, -2.290825444169064E+08, -1.803639227764270E+07,
2460931.500000000, A.D. 2025-Sep-13 00:00:00.0000, 1.966700878027898E+08, -2.207130854129095E+08, -1.325607432061246E+07,
2460938.500000000, A.D. 2025-Sep-20 00:00:00.0000, 2.041077162140713E+08, -2.119302836175438E+08, -8.450949196119815E+06,
2460945.500000000, A.D. 2025-Sep-27 00:00:00.0000, 2.111568612183304E+08, -2.027442326253691E+08, -3.629765407627746E+06,
2460952.500000000, A.D. 2025-Oct-04 00:00:00.0000, 2.177974792685743E+08, -1.931660527997819E+08, 1.198414096325234E+06,
2460959.500000000, A.D. 2025-Oct-11 00:00:00.0000, 2.240095828627497E+08, -1.832079421224301E+08, 6.024208236558445E+06,
2460966.500000000, A.D. 2025-Oct-18 00:00:00.0000, 2.297732899401001E+08, -1.728832280592370E+08, 1.083791557700301E+07,
2460973.500000000, A.D. 2025-Oct-25 00:00:00.0000, 2.350688798981984E+08, -1.622064199940216E+08, 1.562951381977547E+07,
2460980.500000000, A.D. 2025-Nov-01 00:00:00.0000, 2.398768567631921E+08, -1.511932616884912E+08, 2.038866132037117E+07,
2460987.500000000, A.D. 2025-Nov-08 00:00:00.0000, 2.441780200266556E+08, -1.398607831768576E+08, 2.510470094549079E+07,
2460994.500000000, A.D. 2025-Nov-15 00:00:00.0000, 2.479535437451232E+08, -1.282273514189811E+08, 2.976666660811213E+07,
2461001.500000000, A.D. 2025-Nov-22 00:00:00.0000, 2.511850647141344E+08, -1.163127186315946E+08, 3.436329283732434E+07,
2461008.500000000, A.D. 2025-Nov-29 00:00:00.0000, 2.538547799271395E+08, -1.041380661796429E+08, 3.888302789269257E+07,
2461015.500000000, A.D. 2025-Dec-06 00:00:00.0000, 2.559455513251559E+08, -9.172604306158434E+07, 4.331405104578717E+07,
2461022.500000000, A.D. 2025-Dec-13 00:00:00.0000, 2.574410184322024E+08, -7.910080111670764E+07, 4.764429414688687E+07,
2461029.500000000, A.D. 2025-Dec-20 00:00:00.0000, 2.583257223929883E+08, -6.628802453959744E+07, 5.186146767506793E+07,
2461036.500000000, A.D. 2025-Dec-27 00:00:00.0000, 2.585852402053157E+08, -5.331494958459549E+07, 5.595309201441351E+07,
2461043.500000000, A.D. 2026-Jan-03 00:00:00.0000, 2.582063273576929E+08, -4.021037342834085E+07, 5.990653445708014E+07,
2461050.500000000, A.D. 2026-Jan-10 00:00:00.0000, 2.571770684150937E+08, -2.700465111190375E+07, 6.370905225307145E+07,
2461057.500000000, A.D. 2026-Jan-17 00:00:00.0000, 2.554870349467021E+08, -1.372967880868452E+07, 6.734784201415537E+07,
2461064.500000000, A.D. 2026-Jan-24 00:00:00.0000, 2.531274497288094E+08, -4.188614943364151E+05, 7.081009573446752E+07,
2461071.500000000, A.D. 2026-Jan-31 00:00:00.0000, 2.500913557639265E+08, 1.289293688819484E+07, 7.408306360330318E+07,
2461078.500000000, A.D. 2026-Feb-07 00:00:00.0000, 2.463737883315439E+08, 2.616946258425011E+07, 7.715412366596338E+07,
2461085.500000000, A.D. 2026-Feb-14 00:00:00.0000, 2.419719480930888E+08, 3.937316225066083E+07, 8.001085823591352E+07,
2461092.500000000, A.D. 2026-Feb-21 00:00:00.0000, 2.368853730041631E+08, 5.246529639874382E+07, 8.264113682388934E+07,
2461099.500000000, A.D. 2026-Feb-28 00:00:00.0000, 2.311161049177826E+08, 6.540607853148317E+07, 8.503320533574376E+07,
2461106.500000000, A.D. 2026-Mar-07 00:00:00.0000, 2.246688454443896E+08, 7.815483898866771E+07, 8.717578092605536E+07,
2461113.500000000, A.D. 2026-Mar-14 00:00:00.0000, 2.175511001429788E+08, 9.067021165634385E+07, 8.905815117202263E+07,
2461120.500000000, A.D. 2026-Mar-21 00:00:00.0000, 2.097733088411453E+08, 1.029103463960017E+08, 9.067027648512840E+07,
2461127.500000000, A.D. 2026-Mar-28 00:00:00.0000, 2.013489559271241E+08, 1.148331475652235E+08, 9.200289464372396E+07,
2461134.500000000, A.D. 2026-Apr-04 00:00:00.0000, 1.922946558241132E+08, 1.263965362866050E+08, 9.304762582540716E+07,
2461141.500000000, A.D. 2026-Apr-11 00:00:00.0000, 1.826302098261842E+08, 1.375587339293563E+08, 9.379707628010976E+07,
2461148.500000000, A.D. 2026-Apr-18 00:00:00.0000, 1.723786306028759E+08, 1.482785637868489E+08, 9.424493863393354E+07,
2461155.500000000, A.D. 2026-Apr-25 00:00:00.0000, 1.615661309767436E+08, 1.585157671252744E+08, 9.438608667560831E+07,
2461162.500000000, A.D. 2026-May-02 00:00:00.0000, 1.502220741509269E+08, 1.682313289469365E+08, 9.421666238801153E+07,
2461169.500000000, A.D. 2026-May-09 00:00:00.0000, 1.383788834207156E+08, 1.773878080680699E+08, 9.373415296698681E+07,
2461176.500000000, A.D. 2026-May-16 00:00:00.0000, 1.260719105818862E+08, 1.859496657314884E+08, 9.293745564312193E+07,
2461183.500000000, A.D. 2026-May-23 00:00:00.0000, 1.133392629893278E+08, 1.938835874322594E+08, 9.182692839209536E+07,
2461190.500000000, A.D. 2026-May-30 00:00:00.0000, 1.002215882343881E+08, 2.011587916867856E+08, 9.040442498995425E+07,
2461197.500000000, A.D. 2026-Jun-06 00:00:00.0000, 8.676181833302143E+07, 2.077473159027173E+08, 8.867331275425944E+07,
2461204.500000000, A.D. 2026-Jun-13 00:00:00.0000, 7.300488052212761E+07, 2.136242732668823E+08, 8.663847168260582E+07,
2461211.500000000, A.D. 2026-Jun-20 00:00:00.0000, 5.899737872898756E+07, 2.187680777737877E+08, 8.430627475208446E+07,
2461218.500000000, A.D. 2026-Jun-27 00:00:00.0000, 4.478724954491211E+07, 2.231606319925655E+08, 8.168454948221426E+07,
2461225.500000000, A.D. 2026-Jul-04 00:00:00.0000, 3.042339904001035E+07, 2.267874727059442E+08, 7.878252120618059E+07,
2461232.500000000, A.D. 2026-Jul-11 00:00:00.0000, 1.595532759622128E+07, 2.296378713312280E+08, 7.561073904070705E+07,
2461239.500000000, A.D. 2026-Jul-18 00:00:00.0000, 1.432750099526700E+06, 2.317048874390411E+08, 7.218098604977573E+07,
2461246.500000000, A.D. 2026-Jul-25 00:00:00.0000, -1.309478118530984E+07, 2.329853749668474E+08, 6.850617551977997E+07,
2461253.500000000, A.D. 2026-Aug-01 00:00:00.0000, -2.757824393187146E+07, 2.334799419697007E+08, 6.460023559681487E+07,
2461260.500000000, A.D. 2026-Aug-08 00:00:00.0000, -4.196949644469307E+07, 2.331928659888547E+08, 6.047798476914701E+07,
2461267.500000000, A.D. 2026-Aug-15 00:00:00.0000, -5.622160541081615E+07, 2.321319687067050E+08, 5.615500084589115E+07,
2461274.500000000, A.D. 2026-Aug-22 00:00:00.0000, -7.028914644916065E+07, 2.303084552683245E+08, 5.164748630096202E+07,
2461281.500000000, A.D. 2026-Aug-29 00:00:00.0000, -8.412847570935552E+07, 2.277367217904926E+08, 4.697213272141358E+07,
2461288.500000000, A.D. 2026-Sep-05 00:00:00.0000, -9.769796741112038E+07, 2.244341335404335E+08, 4.214598641028577E+07,
$$EOE